ONEWEB-0558             
1 56059U 23043P   25152.91681229  .00000037  00000+0  59271-4 0  9997
2 56059  87.9248 319.8271 0002033 107.3189 252.8168 13.21825627108001
ONEWEB-0559             
1 56060U 23043Q   25152.90576132  .00000033  00000+0  47638-4 0  9994
2 56060  87.9246 319.8217 0001631 105.9326 254.1987 13.21826541108012
ONEWEB-0566             
1 56061U 23043R   25152.89946345  .00000047  00000+0  83406-4 0  9998
2 56061  87.9246 319.8219 0001892 112.1398 247.9937 13.21826084107996
ONEWEB-0568             
1 56062U 23043S   25152.95014796  .00000125  00000+0  29299-3 0  9998
2 56062  87.9034 304.5485 0001980  89.5429 270.5929 13.16595708108947
ONEWEB-0574             
1 56063U 23043T   25152.89314873  .00000076  00000+0  15135-3 0  9990
2 56063  87.9245 319.8116 0001654  88.9886 271.1437 13.21826950108943
ONEWEB-0575             
1 56064U 23043U   25152.94381362  .00000096  00000+0  21649-3 0  9993
2 56064  87.9026 304.5613 0001623  82.9789 277.1527 13.16595685108933
ONEWEB-0576             
1 56065U 23043V   25152.92480377  .00000045  00000+0  84138-4 0  9995
2 56065  87.9027 304.5556 0001865  89.9099 270.2246 13.16595427108925
ONEWEB-0577             
1 56066U 23043W   25152.85514724  .00000092  00000+0  20584-3 0  9998
2 56066  87.9025 304.5691 0001482  76.2939 283.8357 13.16595569108943
